CTC1_L_00658001-01
1 23762U 24183FS  26070.40841435  .00000000  00000+0  00000-0 0  9991
2 23762  70.0000   0.0000 0000000   0.0000   0.0000  3.34706435    15
CTC1_L_00658001-02
1 23763U 25671BF  26070.40841435  .00000000  00000+0  00000-0 0  9995
2 23763  70.0000   0.0000 0000000   0.0000  36.0000  3.34706435    15
CTC1_L_00658001-03
1 23764U 24789SU  26070.40841435  .00000000  00000+0  00000-0 0  9995
2 23764  70.0000   0.0000 0000000   0.0000  72.0000  3.34706435    16
CTC1_L_00658001-04
1 23765U 23077LX  26070.40841435  .00000000  00000+0  00000-0 0  9995
2 23765  70.0000   0.0000 0000000   0.0000 108.0000  3.34706435    17
CTC1_L_00658001-05
1 23766U 23740VM  26070.40841435  .00000000  00000+0  00000-0 0  9993
2 23766  70.0000   0.0000 0000000   0.0000 144.0000  3.34706435    18
CTC1_L_00658001-06
1 23767U 23562DG  26070.40841435  .00000000  00000+0  00000-0 0  9996
2 23767  70.0000   0.0000 0000000   0.0000 180.0000  3.34706435    19
CTC1_L_00658001-07
1 23768U 22795LH  26070.40841435  .00000000  00000+0  00000-0 0  9994
2 23768  70.0000   0.0000 0000000   0.0000 216.0000  3.34706435    10
CTC1_L_00658001-08
1 23769U 23138SV  26070.40841435  .00000000  00000+0  00000-0 0  9997
2 23769  70.0000   0.0000 0000000   0.0000 252.0000  3.34706435    11
CTC1_L_00658001-09
1 23770U 26959VF  26070.40841435  .00000000  00000+0  00000-0 0  9993
2 23770  70.0000   0.0000 0000000   0.0000 288.0000  3.34706435    12
CTC1_L_00658001-10
1 23771U 25348FB  26070.40841435  .00000000  00000+0  00000-0 0  9995
2 23771  70.0000   0.0000 0000000   0.0000 324.0000  3.34706435    14
CTC1_L_00658002-01
1 23772U 23359RG  26070.40841435  .00000000  00000+0  00000-0 0  9996
2 23772  70.0000  30.0000 0000000   0.0000  12.0000  3.34706435    12
CTC1_L_00658002-02
1 23773U 22664DM  26070.40841435  .00000000  00000+0  00000-0 0  9995
2 23773  70.0000  30.0000 0000000   0.0000  48.0000  3.34706435    12
CTC1_L_00658002-03
1 23774U 24167AL  26070.40841435  .00000000  00000+0  00000-0 0  9996
2 23774  70.0000  30.0000 0000000   0.0000  84.0000  3.34706435    13
CTC1_L_00658002-04
1 23775U 24603XG  26070.40841435  .00000000  00000+0  00000-0 0  9992
2 23775  70.0000  30.0000 0000000   0.0000 120.0000  3.34706435    15
CTC1_L_00658002-05
1 23776U 26916VG  26070.40841435  .00000000  00000+0  00000-0 0  9992
2 23776  70.0000  30.0000 0000000   0.0000 156.0000  3.34706435    15
CTC1_L_00658002-06
1 23777U 24868DE  26070.40841435  .00000000  00000+0  00000-0 0  9997
2 23777  70.0000  30.0000 0000000   0.0000 192.0000  3.34706435    16
CTC1_L_00658002-07
1 23778U 26552PW  26070.40841435  .00000000  00000+0  00000-0 0  9990
2 23778  70.0000  30.0000 0000000   0.0000 228.0000  3.34706435    17
CTC1_L_00658002-08
1 23779U 22624MJ  26070.40841435  .00000000  00000+0  00000-0 0  9997
2 23779  70.0000  30.0000 0000000   0.0000 264.0000  3.34706435    18
CTC1_L_00658002-09
1 23780U 25875DX  26070.40841435  .00000000  00000+0  00000-0 0  9990
2 23780  70.0000  30.0000 0000000   0.0000 300.0000  3.34706435    11
CTC1_L_00658002-10
1 23781U 26700TH  26070.40841435  .00000000  00000+0  00000-0 0  9999
2 23781  70.0000  30.0000 0000000   0.0000 336.0000  3.34706435    11
CTC1_L_00658003-01
1 23782U 23318ZH  26070.40841435  .00000000  00000+0  00000-0 0  9992
2 23782  70.0000  60.0000 0000000   0.0000  24.0000  3.34706435    19
CTC1_L_00658003-02
1 23783U 23980BG  26070.40841435  .00000000  00000+0  00000-0 0  9998
2 23783  70.0000  60.0000 0000000   0.0000  60.0000  3.34706435    10
CTC1_L_00658003-03
1 23784U 23217EC  26070.40841435  .00000000  00000+0  00000-0 0  9992
2 23784  70.0000  60.0000 0000000   0.0000  96.0000  3.34706435    10
CTC1_L_00658003-04
1 23785U 23214IR  26070.40841435  .00000000  00000+0  00000-0 0  9990
2 23785  70.0000  60.0000 0000000   0.0000 132.0000  3.34706435    12
CTC1_L_00658003-05
1 23786U 25875UU  26070.40841435  .00000000  00000+0  00000-0 0  9996
2 23786  70.0000  60.0000 0000000   0.0000 168.0000  3.34706435    12
CTC1_L_00658003-06
1 23787U 22405NZ  26070.40841435  .00000000  00000+0  00000-0 0  9993
2 23787  70.0000  60.0000 0000000   0.0000 204.0000  3.34706435    14
CTC1_L_00658003-07
1 23788U 25165X   26070.40841435  .00000000  00000+0  00000-0 0  9990
2 23788  70.0000  60.0000 0000000   0.0000 240.0000  3.34706435    15
CTC1_L_00658003-08
1 23789U 23107SY  26070.40841435  .00000000  00000+0  00000-0 0  9995
2 23789  70.0000  60.0000 0000000   0.0000 276.0000  3.34706435    15
CTC1_L_00658003-09
1 23790U 26824AZ  26070.40841435  .00000000  00000+0  00000-0 0  9996
2 23790  70.0000  60.0000 0000000   0.0000 312.0000  3.34706435    18
CTC1_L_00658003-10
1 23791U 23001BH  26070.40841435  .00000000  00000+0  00000-0 0  9991
2 23791  70.0000  60.0000 0000000   0.0000 348.0000  3.34706435    18
CTC1_L_00658004-01
1 23792U 22831CN  26070.40841435  .00000000  00000+0  00000-0 0  9992
2 23792  70.0000  90.0000 0000000   0.0000  36.0000  3.34706435    16
CTC1_L_00658004-02
1 23793U 26789IV  26070.40841435  .00000000  00000+0  00000-0 0  9999
2 23793  70.0000  90.0000 0000000   0.0000  72.0000  3.34706435    17
CTC1_L_00658004-03
1 23794U 26962SJ  26070.40841435  .00000000  00000+0  00000-0 0  9993
2 23794  70.0000  90.0000 0000000   0.0000 108.0000  3.34706435    18
CTC1_L_00658004-04
1 23795U 26122GA  26070.40841435  .00000000  00000+0  00000-0 0  9992
2 23795  70.0000  90.0000 0000000   0.0000 144.0000  3.34706435    19
CTC1_L_00658004-05
1 23796U 24352SR  26070.40841435  .00000000  00000+0  00000-0 0  9996
2 23796  70.0000  90.0000 0000000   0.0000 180.0000  3.34706435    10
CTC1_L_00658004-06
1 23797U 23365EY  26070.40841435  .00000000  00000+0  00000-0 0  9990
2 23797  70.0000  90.0000 0000000   0.0000 216.0000  3.34706435    11
CTC1_L_00658004-07
1 23798U 24955MY  26070.40841435  .00000000  00000+0  00000-0 0  9997
2 23798  70.0000  90.0000 0000000   0.0000 252.0000  3.34706435    12
CTC1_L_00658004-08
1 23799U 23802WJ  26070.40841435  .00000000  00000+0  00000-0 0  9998
2 23799  70.0000  90.0000 0000000   0.0000 288.0000  3.34706435    12
CTC1_L_00658004-09
1 23800U 24822QR  26070.40841435  .00000000  00000+0  00000-0 0  9994
2 23800  70.0000  90.0000 0000000   0.0000 324.0000  3.34706435    16
CTC1_L_00658004-10
1 23801U 22753YI  26070.40841435  .00000000  00000+0  00000-0 0  9996
2 23801  70.0000  90.0000 0000000   0.0000   0.0000  3.34706435    18
CTC1_L_00658005-01
1 23802U 22583SW  26070.40841435  .00000000  00000+0  00000-0 0  9998
2 23802  70.0000 120.0000 0000000   0.0000  48.0000  3.34706435    15
CTC1_L_00658005-02
1 23803U 26971ZP  26070.40841435  .00000000  00000+0  00000-0 0  9994
2 23803  70.0000 120.0000 0000000   0.0000  84.0000  3.34706435    16
CTC1_L_00658005-03
1 23804U 25674UV  26070.40841435  .00000000  00000+0  00000-0 0  9994
2 23804  70.0000 120.0000 0000000   0.0000 120.0000  3.34706435    18
CTC1_L_00658005-04
1 23805U 26198DN  26070.40841435  .00000000  00000+0  00000-0 0  9997
2 23805  70.0000 120.0000 0000000   0.0000 156.0000  3.34706435    18
CTC1_L_00658005-05
1 23806U 24445CM  26070.40841435  .00000000  00000+0  00000-0 0  9991
2 23806  70.0000 120.0000 0000000   0.0000 192.0000  3.34706435    19
CTC1_L_00658005-06
1 23807U 23549SJ  26070.40841435  .00000000  00000+0  00000-0 0  9996
2 23807  70.0000 120.0000 0000000   0.0000 228.0000  3.34706435    10
CTC1_L_00658005-07
1 23808U 26972LG  26070.40841435  .00000000  00000+0  00000-0 0  9990
2 23808  70.0000 120.0000 0000000   0.0000 264.0000  3.34706435    11
CTC1_L_00658005-08
1 23809U 26958YH  26070.40841435  .00000000  00000+0  00000-0 0  9995
2 23809  70.0000 120.0000 0000000   0.0000 300.0000  3.34706435    13
CTC1_L_00658005-09
1 23810U 26832ZD  26070.40841435  .00000000  00000+0  00000-0 0  9998
2 23810  70.0000 120.0000 0000000   0.0000 336.0000  3.34706435    14
CTC1_L_00658005-10
1 23811U 24197OB  26070.40841435  .00000000  00000+0  00000-0 0  9991
2 23811  70.0000 120.0000 0000000   0.0000  12.0000  3.34706435    16
CTC1_L_00658006-01
1 23812U 22180BW  26070.40841435  .00000000  00000+0  00000-0 0  9992
2 23812  70.0000 150.0000 0000000   0.0000  60.0000  3.34706435    13
CTC1_L_00658006-02
1 23813U 24678WS  26070.40841435  .00000000  00000+0  00000-0 0  9997
2 23813  70.0000 150.0000 0000000   0.0000  96.0000  3.34706435    13
CTC1_L_00658006-03
1 23814U 24386EA  26070.40841435  .00000000  00000+0  00000-0 0  9994
2 23814  70.0000 150.0000 0000000   0.0000 132.0000  3.34706435    15
CTC1_L_00658006-04
1 23815U 23337FX  26070.40841435  .00000000  00000+0  00000-0 0  9990
2 23815  70.0000 150.0000 0000000   0.0000 168.0000  3.34706435    15
CTC1_L_00658006-05
1 23816U 23510MG  26070.40841435  .00000000  00000+0  00000-0 0  9994
2 23816  70.0000 150.0000 0000000   0.0000 204.0000  3.34706435    17
CTC1_L_00658006-06
1 23817U 25840YB  26070.40841435  .00000000  00000+0  00000-0 0  9993
2 23817  70.0000 150.0000 0000000   0.0000 240.0000  3.34706435    18
CTC1_L_00658006-07
1 23818U 23017BE  26070.40841435  .00000000  00000+0  00000-0 0  9998
2 23818  70.0000 150.0000 0000000   0.0000 276.0000  3.34706435    18
CTC1_L_00658006-08
1 23819U 24653OL  26070.40841435  .00000000  00000+0  00000-0 0  9996
2 23819  70.0000 150.0000 0000000   0.0000 312.0000  3.34706435    10
CTC1_L_00658006-09
1 23820U 26581MJ  26070.40841435  .00000000  00000+0  00000-0 0  9990
2 23820  70.0000 150.0000 0000000   0.0000 348.0000  3.34706435    11
CTC1_L_00658006-10
1 23821U 24370JC  26070.40841435  .00000000  00000+0  00000-0 0  9995
2 23821  70.0000 150.0000 0000000   0.0000  24.0000  3.34706435    13
CTC1_L_00658007-01
1 23822U 23862ZK  26070.40841435  .00000000  00000+0  00000-0 0  9991
2 23822  70.0000 180.0000 0000000   0.0000  72.0000  3.34706435    10
CTC1_L_00658007-02
1 23823U 25674DR  26070.40841435  .00000000  00000+0  00000-0 0  9995
2 23823  70.0000 180.0000 0000000   0.0000 108.0000  3.34706435    11
